KUIPER-00167            
1 65780U 25217U   25338.58334491 -.00902171  00000+0 -68506-1 0  9998
2 65780  51.8840 107.7473 0010511 314.7979  94.1686 15.04585857  4883
KUIPER-00168            
1 65781U 25217V   25338.62419540  .00055592  00000+0  14297-2 0  9996
2 65781  51.8722 103.1113 0001932 219.3192 140.7655 15.38720647 10806
KUIPER-00169            
1 65782U 25217W   25338.58334491  .00046665  00000+0  13385-2 0  9991
2 65782  51.8717 103.7031 0004541 308.7268 355.0085 15.35407911  4143
KUIPER-00170            
1 65783U 25217X   25338.58334491 -.00027978  00000+0 -11082-2 0  9992
2 65783  51.8742 104.8460 0008514 326.0549 137.7385 15.24606338  5623
KUIPER-00171            
1 65784U 25217Y   25338.57957926  .00378915  00000+0  32054-2 0  9996
2 65784  51.8581  97.5904 0009919 337.6291  22.4275 15.67955108 10878
KUIPER-00172            
1 65785U 25217Z   25338.57267623  .00077370  00000+0  19996-2 0  9996
2 65785  51.8709 103.5122 0004258 306.2112  53.8481 15.38415256 10797
KUIPER-00173            
1 65786U 25217AA  25338.58334491  .00034623  00000+0  10605-2 0  9998
2 65786  51.8715 103.6600 0003122 279.8223  30.0058 15.33478144  5829
KUIPER-00174            
1 65787U 25217AB  25338.63287654  .00099282  00000+0  25641-2 0  9991
2 65787  51.8719 103.1655 0002889 248.2176 111.8504 15.38317377 10808
